NORAD_CAT_ID,OBJECT_NAME,OBJECT_TYPE,EPOCH,MEAN_MOTION,ECCENTRICITY,INCLINATION,RA_OF_ASC_NODE,ARG_OF_PERICENTER,MEAN_ANOMALY,BSTAR,MEAN_MOTION_DOT,MEAN_MOTION_DDOT,TLE_LINE0,TLE_LINE1,TLE_LINE2,SEMIMAJOR_AXIS,PERIOD,APOGEE,PERIGEE,DECAYED
52703.0,STARLINK-4020,PAYLOAD,2022-06-15 06:00:00,15.7315041,0.0002519,53.2154,160.1309,22.3474,137.9341,0.00019549,0.00026847,0.0,0 STARLINK-4020,1 52703U 22053AZ  22166.25001157  .00026847  00000-0  19549-3 0  9995,2 52703  53.2154 160.1309 0002519  22.3474 137.9341 15.73150410  4692,6728.0369999999975,91.536,351.596,348.207,0.0
52703.0,STARLINK-4020,PAYLOAD,2022-06-15 14:00:01,15.73196055,0.0002504,53.2152,158.4812,22.1237,227.0338,0.00011831,0.00016013,0.0,0 STARLINK-4020,1 52703U 22053AZ  22166.58334491  .00016013  00000-0  11831-3 0  9991,2 52703  53.2152 158.4812 0002504  22.1237 227.0338 15.73196055  1305,6727.906,91.533,351.456,348.087,0.0
52703.0,STARLINK-4020,PAYLOAD,2022-06-15 22:00:00,15.73232297,0.0002345,53.2157,156.8299,27.2665,310.8303,0.00010173,0.000137,0.0,0 STARLINK-4020,1 52703U 22053AZ  22166.91667824  .00013700  00000-0  10173-3 0  9995,2 52703  53.2157 156.8299 0002345  27.2665 310.8303 15.73232297  4805,6727.803000000001,91.531,351.246,348.09,0.0
52703.0,STARLINK-4020,PAYLOAD,2022-06-16 02:00:01,15.73269879,0.0002443,53.2161,156.0062,29.2188,173.36900000000003,-0.0003373,-0.0004784,0.0,0 STARLINK-4020,1 52703U 22053AZ  22167.08334491 -.00047840  00000-0 -33730-3 0  9993,2 52703  53.2161 156.0062 0002443  29.2188 173.3690 15.73269879  1300,6727.696,91.529,351.205,347.917,0.0
52703.0,STARLINK-4020,PAYLOAD,2022-06-19 14:00:01,15.73246264,0.0002234,53.2158,138.6875,25.1444,211.2713,-0.00065849,-0.00092224,0.0,0 STARLINK-4020,1 52703U 22053AZ  22170.58334491 -.00092224  00000-0 -65849-3 0  9994,2 52703  53.2158 138.6875 0002234  25.1444 211.2713 15.73246264  1303,6727.763000000001,91.53,351.131,348.125,0.0
52703.0,STARLINK-4020,PAYLOAD,2022-06-19 22:00:00,15.73212884,0.0002004,53.2162,137.037,24.2598,301.0898,3.4508e-05,4.227e-05,0.0,0 STARLINK-4020,1 52703U 22053AZ  22170.91667824  .00004227  00000-0  34508-4 0  9993,2 52703  53.2162 137.0370 0002004  24.2598 301.0898 15.73212884  1309,6727.858,91.532,351.07199999999995,348.375,0.0
52703.0,STARLINK-4020,PAYLOAD,2022-06-20 14:00:01,15.73195633,0.0002182,53.216,133.7389,22.7142,120.4977,-0.00034719,-0.0004906,0.0,0 STARLINK-4020,1 52703U 22053AZ  22171.58334491 -.00049060  00000-0 -34719-3 0  9997,2 52703  53.2160 133.7389 0002182  22.7142 120.4977 15.73195633  1308,6727.908,91.533,351.241,348.305,0.0
52703.0,STARLINK-4020,PAYLOAD,2022-06-20 22:00:00,15.73184053,0.0002042,53.216,132.0888,28.4622,203.6479,0.00037622,0.00052476,0.0,0 STARLINK-4020,1 52703U 22053AZ  22171.91667824  .00052476  00000-0  37622-3 0  9992,2 52703  53.2160 132.0888 0002042  28.4622 203.6479 15.73184053  5595,6727.941,91.534,351.17900000000014,348.432,0.0
52703.0,STARLINK-4020,PAYLOAD,2022-06-21 14:00:01,15.73234948,0.000207,53.2152,128.7903,24.5919,25.4293,-0.00027418,-0.00038984,0.0,0 STARLINK-4020,1 52703U 22053AZ  22172.58334491 -.00038984  00000-0 -27418-3 0  9999,2 52703  53.2152 128.7903 0002070  24.5919  25.4293 15.73234948  5697,6727.795999999999,91.531,351.05300000000005,348.26800000000014,0.0
52703.0,STARLINK-4020,PAYLOAD,2022-06-21 22:00:00,15.73192047,0.0001986,53.2156,127.1401,30.237,108.7315,0.00016893,0.00023146,0.0,0 STARLINK-4020,1 52703U 22053AZ  22172.91667824  .00023146  00000-0  16893-3 0  9992,2 52703  53.2156 127.1401 0001986  30.2370 108.7315 15.73192047  1304,6727.918000000002,91.534,351.119,348.44699999999995,0.0
52703.0,STARLINK-4020,PAYLOAD,2022-06-22 14:00:01,15.73193031,0.000204,53.2155,123.8415,25.1655,291.6289,9.2661e-05,0.00012399,0.0,0 STARLINK-4020,1 52703U 22053AZ  22173.58334491  .00012399  00000-0  92661-4 0  9993,2 52703  53.2155 123.8415 0002040  25.1655 291.6289 15.73193031  5852,6727.915,91.534,351.153,348.408,0.0
52703.0,STARLINK-4020,PAYLOAD,2022-06-22 22:00:00,15.73217194,0.0002027,53.2155,122.1918,31.4083,14.3152,-0.00021868,-0.00031223,0.0,0 STARLINK-4020,1 52703U 22053AZ  22173.91667824 -.00031223  00000-0 -21868-3 0  9998,2 52703  53.2155 122.1918 0002027  31.4083  14.3152 15.73217194  1304,6727.846,91.532,351.075,348.347,0.0
52703.0,STARLINK-4020,PAYLOAD,2022-06-23 14:00:01,15.73059642,0.0002025,53.217,118.8928,30.5115,193.0793,0.0015463,0.00220867,0.0,0 STARLINK-4020,1 52703U 22053AZ  22174.58334491  .00220867  00000-0  15463-2 0  9998,2 52703  53.2170 118.8928 0002025  30.5115 193.0793 15.73059642  6019,6728.295,91.541,351.523,348.798,0.0
52703.0,STARLINK-4020,PAYLOAD,2022-06-23 22:00:00,15.73237661,0.0001829,53.2152,117.243,28.1907,284.3598,-0.00022192,-0.00031701,0.0,0 STARLINK-4020,1 52703U 22053AZ  22174.91667824 -.00031701  00000-0 -22192-3 0  9991,2 52703  53.2152 117.2430 0001829  28.1907 284.3598 15.73237661  6064,6727.788000000001,91.531,350.8830000000001,348.422,0.0
52703.0,STARLINK-4020,PAYLOAD,2022-06-24 14:00:01,15.73168154,0.0001937,53.2154,113.944,26.0396,104.3713,-0.00017725,-0.00025389,0.0,0 STARLINK-4020,1 52703U 22053AZ  22175.58334491 -.00025389  00000-0 -17725-3 0  9997,2 52703  53.2154 113.9440 0001937  26.0396 104.3713 15.73168154  6160,6727.986,91.535,351.154,348.548,0.0
52703.0,STARLINK-4020,PAYLOAD,2022-06-24 22:00:01,15.73167774,0.0001979,53.2155,112.2948,32.7315,186.6122,0.00012867,0.00017451,0.0,0 STARLINK-4020,1 52703U 22053AZ  22175.91668981  .00017451  00000-0  12867-3 0  9999,2 52703  53.2155 112.2948 0001979  32.7315 186.6122 15.73167774  1302,6727.986999999999,91.535,351.184,348.521,0.0
52703.0,STARLINK-4020,PAYLOAD,2022-06-25 06:00:00,15.73157136,0.0002204,53.215,110.6472,29.6808,278.5001,0.00058768,0.00082523,0.0,0 STARLINK-4020,1 52703U 22053AZ  22176.25001157  .00082523  00000-0  58768-3 0  9995,2 52703  53.2150 110.6472 0002204  29.6808 278.5001 15.73157136  6274,6728.017,91.536,351.365,348.4,0.0
52703.0,STARLINK-4020,PAYLOAD,2022-06-25 14:00:01,15.73204242,0.0001903,53.2151,108.9956,32.905,4.1996,0.00038255,0.00053422,0.0,0 STARLINK-4020,1 52703U 22053AZ  22176.58334491  .00053422  00000-0  38255-3 0  9996,2 52703  53.2151 108.9956 0001903  32.9050   4.1996 15.73204242  1309,6727.8830000000025,91.533,351.028,348.468,0.0
52703.0,STARLINK-4020,PAYLOAD,2022-06-25 22:00:00,15.73286421,0.0001883,53.2154,107.3463,34.5743,91.4882,-0.00013754,-0.00019951,0.0,0 STARLINK-4020,1 52703U 22053AZ  22176.91667824 -.00019951  00000-0 -13754-3 0  9990,2 52703  53.2154 107.3463 0001883  34.5743  91.4882 15.73286421  1304,6727.649,91.528,350.781,348.247,0.0
52703.0,STARLINK-4020,PAYLOAD,2022-06-26 06:00:00,15.73255744,0.0002024,53.2155,105.6984,26.8661,188.2341,-6.3834e-05,-9.592e-05,0.0,0 STARLINK-4020,1 52703U 22053AZ  22177.25001157 -.00009592  00000-0 -63834-4 0  9994,2 52703  53.2155 105.6984 0002024  26.8661 188.2341 15.73255744  6433,6727.736,91.53,350.963,348.24,0.0
52703.0,STARLINK-4020,PAYLOAD,2022-06-26 14:00:01,15.73227611,0.000182,53.2158,104.0468,30.6349,273.5329,-0.00024198,-0.00034484,0.0,0 STARLINK-4020,1 52703U 22053AZ  22177.58335648 -.00034484  00000-0 -24198-3 0  9992,2 52703  53.2158 104.0468 0001820  30.6349 273.5329 15.73227611  1302,6727.816,91.532,350.906,348.457,0.0
52703.0,STARLINK-4020,PAYLOAD,2022-06-26 20:00:01,15.73195653,0.0001785,53.2158,102.8096,33.3006,247.5151,0.00022505,0.00031076,0.0,0 STARLINK-4020,1 52703U 22053AZ  22177.83334491  .00031076  00000-0  22505-3 0  9997,2 52703  53.2158 102.8096 0001785  33.3006 247.5151 15.73195653  6528,6727.908,91.533,350.973,348.57199999999995,0.0
52703.0,STARLINK-4020,PAYLOAD,2022-06-26 22:00:00,15.73208967,0.0001845,53.2157,102.3979,31.4754,1.5702,5.612399999999999e-05,7.266e-05,0.0,0 STARLINK-4020,1 52703U 22053AZ  22177.91667824  .00007266  00000-0  56124-4 0  9994,2 52703  53.2157 102.3979 0001845  31.4754   1.5702 15.73208967  1302,6727.87,91.533,350.976,348.49300000000005,0.0
52703.0,STARLINK-4020,PAYLOAD,2022-06-27 04:00:00,15.73202092,0.0002044,53.2155,101.1623,29.6447,340.074,-0.00044161,-0.00062153,0.0,0 STARLINK-4020,1 52703U 22053AZ  22178.16667824 -.00062153  00000-0 -44161-3 0  9997,2 52703  53.2155 101.1623 0002044  29.6447 340.0740 15.73202092  6573,6727.889,91.533,351.129,348.379,0.0
52703.0,STARLINK-4020,PAYLOAD,2022-06-27 14:00:01,15.73106393,0.0001727,53.2154,99.0985,29.4775,181.3662,0.00036641,0.0005091,0.0,0 STARLINK-4020,1 52703U 22053AZ  22178.58334491  .00050910  00000-0  36641-3 0  9994,2 52703  53.2154  99.0985 0001727  29.4775 181.3662 15.73106393  1309,6728.1619999999975,91.539,351.189,348.865,0.0
52703.0,STARLINK-4020,PAYLOAD,2022-06-27 20:00:01,15.73141691,0.0001691,53.2157,97.8616,33.6456,153.8816,0.00030309,0.00042024,0.0,0 STARLINK-4020,1 52703U 22053AZ  22178.83335648  .00042024  00000-0  30309-3 0  9999,2 52703  53.2157  97.8616 0001691  33.6456 153.8816 15.73141691  6672,6728.061,91.537,351.064,348.789,0.0
52703.0,STARLINK-4020,PAYLOAD,2022-06-27 22:00:00,15.73160212,0.0001758,53.2157,97.4499,31.7006,267.9735,9.8481e-05,0.00013199,0.0,0 STARLINK-4020,1 52703U 22053AZ  22178.91667824  .00013199  00000-0  98481-4 0  9999,2 52703  53.2157  97.4499 0001758  31.7006 267.9735 15.73160212  1303,6728.009,91.535,351.056,348.691,0.0
52703.0,STARLINK-4020,PAYLOAD,2022-06-28 06:00:00,15.73213351,0.0002031,53.2157,95.8018,30.6384,358.0585,-0.00017611,-0.00025279,0.0,0 STARLINK-4020,1 52703U 22053AZ  22179.25001157 -.00025279  00000-0 -17611-3 0  9997,2 52703  53.2157  95.8018 0002031  30.6384 358.0585 15.73213351  6745,6727.857,91.532,351.089,348.356,0.0
52703.0,STARLINK-4020,PAYLOAD,2022-06-28 14:00:01,15.73155908,0.0001733,53.216,94.1503,30.7032,86.93,0.00048578,0.00067982,0.0,0 STARLINK-4020,1 52703U 22053AZ  22179.58334491  .00067982  00000-0  48578-3 0  9994,2 52703  53.2160  94.1503 0001733  30.7032  86.9300 15.73155908  1301,6728.021,91.536,351.052,348.72,0.0
